[{"OBJECT_NAME":"STARLINK-4471","OBJECT_ID":"2022-105S","EPOCH":"2026-03-09T15:48:04.716288","MEAN_MOTION":15.0562915,"ECCENTRICITY":0.00019386,"INCLINATION":97.6033,"RA_OF_ASC_NODE":311.1471,"ARG_OF_PERICENTER":80.1589,"MEAN_ANOMALY":279.9856,"EPHEMERIS_TYPE":0,"CLASSIFICATION_TYPE":"U","NORAD_CAT_ID":53664,"ELEMENT_SET_NO":999,"REV_AT_EPOCH":19329,"BSTAR":-0.00016140051,"MEAN_MOTION_DOT":-2.388e-5,"MEAN_MOTION_DDOT":0},{"OBJECT_NAME":"CZ-6A DEB","OBJECT_ID":"2022-151LV","EPOCH":"2026-03-09T17:28:26.716800","MEAN_MOTION":14.98158937,"ECCENTRICITY":0.00445354,"INCLINATION":98.6404,"RA_OF_ASC_NODE":145.743,"ARG_OF_PERICENTER":190.094,"MEAN_ANOMALY":169.939,"EPHEMERIS_TYPE":0,"CLASSIFICATION_TYPE":"U","NORAD_CAT_ID":54569,"ELEMENT_SET_NO":999,"REV_AT_EPOCH":17656,"BSTAR":0.0053350459,"MEAN_MOTION_DOT":0.00065033,"MEAN_MOTION_DDOT":0}]
